*******************************************************************************
JPL/HORIZONS               4035 Thestor (1986 WD)          2023-Sep-04 11:26:55
Rec #:    4035 (+COV) Soln.date: 2023-Aug-23_15:35:49   # obs: 3370 (1973-2023)
 
IAU76/J2000 helio. ecliptic osc. elements (au, days, deg., period=Julian yrs):
 
  EPOCH=  2458249.5 ! 2018-May-11.00 (TDB)         Residual RMS= .23777
   EC= .05586758009429669  QR= 4.989570802676961   TP= 2460009.1656672154
   OM= 233.7325840832391   W=  197.5332170141754   IN= 12.12981061210911
   A= 5.284820960999626    MA= 217.2458257633142   ADIST= 5.58007111932229
   PER= 12.14937           N= .081125737           ANGMOM= .039483693
   DAN= 5.56477            DDN= 5.00187            L= 70.8975982
   B= -3.629402            MOID= 4.00430012        TP= 2023-Mar-05.6656672154
 
Asteroid physical parameters (km, seconds, rotational period in hours):
   GM= n.a.                RAD= 34.3665            ROTPER= 13.467
   H= 9.61                 G= .150                 B-V= n.a.
                           ALBEDO= .054            STYP= n.a.

ASTEROID comments: 
1: soln ref.= JPL#91, OCC=0
2: source=ORB
*******************************************************************************


*******************************************************************************
Ephemeris / API_USER Mon Sep  4 11:26:55 2023 Pasadena, USA      / Horizons
*******************************************************************************
Target body name: 4035 Thestor (1986 WD)          {source: JPL#91}
Center body name: Solar System Barycenter (0)     {source: DE441}
Center-site name: BODY CENTER
*******************************************************************************
Start time      : A.D. 2023-Aug-12 00:00:00.0000 TDB
Stop  time      : A.D. 2023-Aug-13 00:00:00.0000 TDB
Step-size       : 2880 minutes
*******************************************************************************
Center geodetic : 0.0, 0.0, 0.0                   {E-lon(deg),Lat(deg),Alt(km)}
Center cylindric: 0.0, 0.0, 0.0                   {E-lon(deg),Dxy(km),Dz(km)}
Center radii    : (undefined)
Small perturbers: Yes                             {source: SB441-N16}
Output units    : KM-S
Calendar mode   : Mixed Julian/Gregorian
Output type     : GEOMETRIC cartesian states
Output format   : 2 (position and velocity)
Reference frame : Ecliptic of J2000.0
*******************************************************************************
Initial IAU76/J2000 heliocentric ecliptic osculating elements (au, days, deg.):
  EPOCH=  2458249.5 ! 2018-May-11.00 (TDB)         Residual RMS= .23777        
   EC= .05586758009429669  QR= 4.989570802676961   TP= 2460009.1656672154      
   OM= 233.7325840832391   W=  197.5332170141754   IN= 12.12981061210911       
  Equivalent ICRF heliocentric cartesian coordinates (au, au/d):
   X= 1.338140420220836E+00  Y=-5.207743004604278E+00  Z=-1.272820559171814E+00
  VX= 6.770403268329284E-03 VY= 1.577216170025715E-03 VZ= 1.669969190408100E-03
Asteroid physical parameters (km, seconds, rotational period in hours):        
   GM= n.a.                RAD= 34.3665            ROTPER= 13.467              
   H= 9.61                 G= .150                 B-V= n.a.                   
                           ALBEDO= .054            STYP= n.a.                  
*******************************************************************************
JDTDB
   X     Y     Z
   VX    VY    VZ
*******************************************************************************
$$SOE
2460168.500000000 = A.D. 2023-Aug-12 00:00:00.0000 TDB 
 X = 5.676874466772961E+07 Y = 7.380416576488310E+08 Z =-8.386203201204357E+07
 VX=-1.345298592254017E+01 VY= 9.350035539852178E-01 VZ=-2.453029022870292E+00
$$EOE
*******************************************************************************
 
TIME

  Barycentric Dynamical Time ("TDB" or T_eph) output was requested. This
continuous coordinate time is equivalent to the relativistic proper time
of a clock at rest in a reference frame co-moving with the solar system
barycenter but outside the system's gravity well. It is the independent
variable in the solar system relativistic equations of motion.

  TDB runs at a uniform rate of one SI second per second and is independent
of irregularities in Earth's rotation.
 
CALENDAR SYSTEM

  Mixed calendar mode was active such that calendar dates after AD 1582-Oct-15
(if any) are in the modern Gregorian system. Dates prior to 1582-Oct-5 (if any)
are in the Julian calendar system, which is automatically extended for dates
prior to its adoption on 45-Jan-1 BC.  The Julian calendar is useful for
matching historical dates. The Gregorian calendar more accurately corresponds
to the Earth's orbital motion and seasons. A "Gregorian-only" calendar mode is
available if such physical events are the primary interest.

REFERENCE FRAME AND COORDINATES

  Ecliptic at the standard reference epoch

    Reference epoch: J2000.0
    X-Y plane: adopted Earth orbital plane at the reference epoch
               Note: IAU76 obliquity of 84381.448 arcseconds wrt ICRF X-Y plane
    X-axis   : ICRF
    Z-axis   : perpendicular to the X-Y plane in the directional (+ or -) sense
               of Earth's north pole at the reference epoch.

  Symbol meaning:

    JDTDB    Julian Day Number, Barycentric Dynamical Time
      X      X-component of position vector (km)
      Y      Y-component of position vector (km)
      Z      Z-component of position vector (km)
      VX     X-component of velocity vector (km/sec)                           
      VY     Y-component of velocity vector (km/sec)                           
      VZ     Z-component of velocity vector (km/sec)                           

ABERRATIONS AND CORRECTIONS

 Geometric state vectors have NO corrections or aberrations applied.

Computations by ...

    Solar System Dynamics Group, Horizons On-Line Ephemeris System
    4800 Oak Grove Drive, Jet Propulsion Laboratory
    Pasadena, CA  91109   USA

    General site: https://ssd.jpl.nasa.gov/
    Mailing list: https://ssd.jpl.nasa.gov/email_list.html
    System news : https://ssd.jpl.nasa.gov/horizons/news.html
    User Guide  : https://ssd.jpl.nasa.gov/horizons/manual.html
    Connect     : browser        https://ssd.jpl.nasa.gov/horizons/app.html#/x
                  API            https://ssd-api.jpl.nasa.gov/doc/horizons.html
                  command-line   telnet ssd.jpl.nasa.gov 6775
                  e-mail/batch   https://ssd.jpl.nasa.gov/ftp/ssd/hrzn_batch.txt
                  scripts        https://ssd.jpl.nasa.gov/ftp/ssd/SCRIPTS
    Author      : Jon.D.Giorgini@jpl.nasa.gov
*******************************************************************************
